IRIDIUM 57              
1 25273U 98019B   24209.23375791  .00000525  00000+0  17644-3 0  9996
2 25273  86.3948 281.3472 0002272  93.5914 266.5542 14.35299308378169
IRIDIUM 63              
1 25286U 98021B   24209.10271265  .00000615  00000+0  20568-3 0  9999
2 25286  86.3978 218.3042 0002133  93.0826 267.0614 14.35847487377186
IRIDIUM 69              
1 25319U 98026A   24209.40107577  .00000684  00000+0  21060-3 0  9992
2 25319  86.3958 232.4417 0003623  53.0692 307.0838 14.40100534376549
IRIDIUM 71              
1 25320U 98026B   24209.11461072  .00000633  00000+0  19331-3 0  9997
2 25320  86.3960 227.3161 0004439  85.3358 274.8348 14.40405313376782
IRIDIUM 73              
1 25344U 98032C   24209.17202295  .00001039  00000+0  25957-3 0  9998
2 25344  86.4455 184.6859 0002655  76.4029 283.7471 14.50656764383425
IRIDIUM 82              
1 25467U 98051A   24209.20816357  .00015894  00000+0  76287-3 0  9995
2 25467  86.3730 266.7627 0125831  73.9482 287.5571 15.11898799374537
